00724   13.91  0.15 K20CH 123.28906  205.81638  204.23403   11.71381  0.2510058  0.25635966   2.4541603  0 MPO600179  1661  28 1911-2021 0.51 M-v 3Ek Pan        0000    (724) Hapag              20210315
00725   11.85  0.15 K20CH 162.33293  323.33155   68.67374    3.79033  0.2217834  0.23898263   2.5717287  0 MPO600179  3442  43 1915-2021 0.42 M-v 3Ek Pan        0000    (725) Amanda             20210318
00726   10.50  0.15 K20CH 226.99934  113.22625  241.96947   15.43667  0.2853080  0.23993618   2.5649106  0 MPO600179  2527  36 1931-2021 0.38 M-v 3Ek Pan        0000    (726) Joella             20210318
00727    9.63  0.15 K20CH 234.94584  274.38043  133.05212   15.06184  0.1053851  0.23960585   2.5672674  0 MPO600179  3238  40 1908-2020 0.39 M-v 3Ek Pan        0000    (727) Nipponia           20201016
00728   12.92  0.15 K20CH  64.06979   54.91486   82.63932    4.25716  0.0879117  0.29137156   2.2533982  0 MPO600179  2844  32 1912-2021 0.45 M-v 3Ek Pan        0000    (728) Leonisis           20210226
00729    9.40  0.15 K20CH 207.80352   87.70851  124.32751   18.05081  0.0972271  0.21504823   2.7591722  0 MPO600179  3230  36 1917-2021 0.38 M-v 3Ek Pan        0000    (729) Watsonia           20210310
00730   13.76  0.15 K20CH 111.14961  123.48006   95.06773    4.23432  0.1780448  0.29336235   2.2431921  0 MPO600179  2715  24 1912-2021 0.47 M-v 3Ek Pan        0000    (730) Athanasia          20210119
00731    9.72  0.15 K20CH 239.16409  288.67755   46.13080   10.68988  0.1413885  0.19095471   2.9866372  0 MPO600179  3198  43 1919-2021 0.42 M-v 3Ek Pan        0000    (731) Sorga              20210315
00732   10.57  0.15 K20CH  50.82638   65.08169  173.32249   10.99481  0.0440661  0.25588025   2.4572247  0 MPO600179  3304  46 1913-2020 0.39 M-v 3Ek Pan        0000    (732) Tjilaki            20201107
00733    9.24  0.15 K20CH 310.65403  189.54737  340.97780   20.28607  0.0584480  0.15717043   3.4005995  0 MPO600179  3050  43 1909-2021 0.40 M-v 3Ek Pan        0000    (733) Mocia              20210318
00734    9.97  0.15 K20CH  87.23492   66.14757    3.13038    5.80546  0.1000611  0.17649386   3.1476249  0 MPO600179  3303  46 1920-2021 0.44 M-v 3Ek Pan        0000    (734) Benda              20210315
00735    9.83  0.15 K20CH  30.43359  309.78426   42.95054   16.86620  0.3209099  0.21857871   2.7293808  0 MPO600179  3288  38 1912-2021 0.43 M-v 3Ek Pan        0000    (735) Marghanna          20210307
00736   11.24  0.15 K20CH  89.02148  200.56448  135.90431    4.37672  0.1651324  0.30160691   2.2021244  0 MPO600179  3368  45 1912-2021 0.42 M-v 3Ek Pan        0000    (736) Harvard            20210307
00737    9.03  0.15 K20CH  43.44992  134.11740  184.62866   12.36805  0.2449715  0.23649499   2.5897316  0 MPO600179  3320  53 1915-2021 0.45 M-v 3Ek Pan        0000    (737) Arequipa           20210306
00738   10.05  0.15 K20CH  83.29590   43.10565  132.09424    3.53500  0.0542946  0.18625602   3.0366577  0 MPO600179  3551  59 1913-2021 0.44 M-v 3Ek Pan        0000    (738) Alagasta           20210303
00739    8.71  0.15 K20CH 265.36083   45.11457  136.55155   20.66121  0.1435935  0.21757975   2.7377287  0 MPO600179  3377  48 1915-2021 0.42 M-v 3Ek Pan        0000    (739) Mandeville         20210319
00740    9.18  0.15 K20CH  69.38420   48.12158  116.07476   10.84622  0.1093737  0.18492875   3.0511702  0 MPO600179  3062  50 1913-2021 0.42 M-v 3Ek Pan        0000    (740) Cantabia           20210303
00741   10.09  0.15 K20CH   1.14763   61.72251  100.70631    8.41364  0.0701150  0.21976269   2.7195689  0 MPO600179  3283  49 1909-2021 0.41 M-v 3Ek Pan        0000    (741) Botolphia          20210315
00742    9.54  0.15 K20CH   7.66521  283.46698   64.15705   11.20364  0.1155740  0.18857828   3.0116761  0 MPO600179  3125  49 1913-2021 0.41 M-v 3Ek Pan        0000    (742) Edisona            20210204
00743   10.36  0.15 K20CH 126.75611  186.45610  228.95678    4.83443  0.0596538  0.21120751   2.7925212  0 MPO600179  3232  53 1913-2021 0.42 M-v 3Ek Pan        0000    (743) Eugenisis          20210315
00744   10.40  0.15 K20CH   6.23285   28.75252  142.63919    7.71500  0.1169780  0.17447816   3.1718209  0 MPO600179  3202  43 1913-2021 0.41 M-v 3Ek Pan        0000    (744) Aguntina           20210315
00745   10.54  0.15 K20CH 135.63564   29.02589  125.67008   13.32813  0.0396291  0.16678313   3.2686466  0 MPO600179  2713  41 1913-2020 0.43 M-v 3Ek Pan        0000    (745) Mauritia           20201009
00746    9.87  0.15 K20CH  96.23775  306.85620    1.93291   17.47878  0.2368690  0.17968788   3.1102135  0 MPO600179  3397  41 1915-2021 0.39 M-v 3Ek Pan        0000    (746) Marlu              20210315
00747    7.85  0.15 K20CH   0.47730  277.42878  129.10354   18.21787  0.3390625  0.18968374   2.9999636  0 MPO600179  3065  61 1913-2021 0.48 M-v 3Ek Pan        0000    (747) Winchester         20210310
00748    9.01  0.15 K20CH 349.31604  177.67748  265.46863    2.25852  0.1884163  0.12561147   3.9486610  0 MPO600179  3392  58 1920-2021 0.45 M-v 3Ek Pan        0008    (748) Simeisa            20210318
00749   11.66  0.15 K20CH 347.76103  129.01484  109.75692    5.39457  0.1728116  0.29332551   2.2433799  0 MPO600179  3279  43 1913-2021 0.43 M-v 3Ek Pan        0000    (749) Malzovia           20210210
00750   12.28  0.15 K20CH 126.50699   72.29105   69.69981    3.94975  0.1281578  0.25774129   2.4453821  0 MPO600179  3375  41 1913-2020 0.42 M-v 3Ek Pan        0000    (750) Oskar              20201001
00751    8.76  0.15 K20CH 341.64477  302.39142   78.83578   15.59762  0.1510388  0.24192703   2.5508199  0 MPO600179  2944  46 1913-2021 0.40 M-v 3Ek Pan        0000    (751) Faina              20210210
00752   10.33  0.15 K20CH  45.40868   23.43198   85.11793    5.96170  0.0746892  0.25503513   2.4626501  0 MPO600179  3243  46 1917-2021 0.43 M-v 3Ek Pan        0000    (752) Sulamitis          20210315
00753   10.20  0.15 K20CH  70.48163  202.99190   61.33227   10.08812  0.2215713  0.27738785   2.3285081  0 MPO600179  3215  42 1907-2021 0.38 M-v 3Ek Pan        0000    (753) Tiflis             20210211
00754    9.27  0.15 K20CH 271.01182  303.44647  179.92418   24.54476  0.0501920  0.19099948   2.9861705  0 MPO600179  3573  53 1901-2021 0.39 M-v 3Ek Pan        0000    (754) Malabar            20210307
00755    9.72  0.15 K20CH 328.81110   44.02147  176.66981    3.24273  0.1371359  0.17375134   3.1806602  0 MPO600179  3693  55 1915-2021 0.41 M-v 3Ek Pan        0000    (755) Quintilla          20210315
00756    9.98  0.15 K20CH 198.01577    4.46059  208.06647   20.35167  0.1482634  0.17255516   3.1953425  0 MPO600179  3500  40 1914-2021 0.40 M-v 3Ek Pan        0000    (756) Lilliana           20210310
00757   10.13  0.15 K20CH 205.35913   43.77309   22.49683    8.16797  0.1092266  0.26959126   2.3731882  0 MPO600179  3240  45 1912-2021 0.46 M-v 3Ek Pan        0000    (757) Portlandia         20210313
00758    8.46  0.15 K20CH 178.38534  314.52165  106.18877    5.61060  0.1504915  0.17319330   3.1874887  0 MPO600179  3470  65 1914-2021 0.46 M-v 3Ek Pan        0000    (758) Mancunia           20210307
00759   10.61  0.15 K20CH 125.96879    0.98500  318.34600   19.90529  0.2054103  0.23253120   2.6190788  0 MPO600179  3298  33 1913-2021 0.36 M-v 3Ek Pan        0000    (759) Vinifera           20210314
00760    7.93  0.15 K20CH 212.15995  200.51871  331.54836   12.53955  0.2334347  0.17660904   3.1462562  0 MPO600179  3073  50 1914-2021 0.45 M-v 3Ek Pan        0000    (760) Massinga           20210208
00761   10.73  0.15 K20CH  80.92957  297.67188   23.72738    2.15551  0.0627861  0.20351963   2.8624100  0 MPO600179  3652  51 1913-2021 0.44 M-v 3Ek Pan        0000    (761) Brendelia          20210310
00762    8.03  0.15 K20CH 270.77267  188.99734  305.54278   13.10061  0.1063690  0.17610350   3.1522748  0 MPO600179  3742  48 1916-2021 0.40 M-v 3Ek Pan        0000    (762) Pulcova            20210306
00763   12.63  0.15 K20CH 338.27424   88.90090  289.81333    4.08250  0.1656842  0.29384356   2.2407424  0 MPO600179  3032  33 1913-2021 0.39 M-v 3Ek Pan        0000    (763) Cupido             20210206
00764    9.75  0.15 K20CH 276.08653  157.54906  258.84680   10.00192  0.0934342  0.17236527   3.1976889  0 MPO600179  3720  50 1902-2020 0.56 M-v 3Ek Pan        0000    (764) Gedania            20201220
00765   12.40  0.15 K20CH 115.36420   71.87069  326.29502    5.53390  0.2849625  0.24273796   2.5451355  0 MPO600179  2435  37 1913-2021 0.46 M-v 3Ek Pan        0000    (765) Mattiaca           20210319
00766    9.93  0.15 K20CH  95.79627   71.00312    7.81892   10.08904  0.0966189  0.18787249   3.0192142  0 MPO600179  3106  45 1908-2021 0.42 M-v 3Ek Pan        0000    (766) Moguntia           20210315
00767   10.20  0.15 K20CH 172.81065  269.11253   79.31819    2.41172  0.1824279  0.17870525   3.1216042  0 MPO600179  3535  52 1902-2021 0.45 M-v 3Ek Pan        0000    (767) Bondia             20210315
00768   10.29  0.15 K20CH  62.96072   16.68777   38.89494   16.27068  0.2130862  0.17723628   3.1388289  0 MPO600179  2750  37 1930-2021 0.42 M-v 3Ek Pan        0000    (768) Struveana          20210318
00769    9.05  0.15 K20CH  10.76435  253.66421   38.42759    7.36483  0.1875965  0.17451915   3.1713243  0 MPO600179  3220  54 1914-2020 0.41 M-v 3Ek Pan        0000    (769) Tatjana            20201129
00770   10.97  0.15 K20CH 116.18592   18.23983   44.68017    4.38349  0.1512660  0.29784375   2.2206343  0 MPO600179  3128  49 1903-2021 0.46 M-v 3Ek Pan        0000    (770) Bali               20210320
00771   10.31  0.15 K20CH 272.11618  228.43845  217.88488   14.88686  0.2468913  0.22810786   2.6528288  0 MPO600179  3072  47 1913-2021 0.38 M-v 3Ek Pan        0000    (771) Libera             20210110
00772    8.43  0.15 K20CH 106.89333  146.32004   63.76802   28.82675  0.0937927  0.18961203   3.0007199  0 MPO600179  2826  46 1914-2020 0.41 M-v 3Ek Pan        0000    (772) Tanete             20201210
